OBJECT_NAME,OBJECT_ID,EPOCH,MEAN_MOTION,ECCENTRICITY,INCLINATION,RA_OF_ASC_NODE,ARG_OF_PERICENTER,MEAN_ANOMALY,EPHEMERIS_TYPE,CLASSIFICATION_TYPE,NORAD_CAT_ID,ELEMENT_SET_NO,REV_AT_EPOCH,BSTAR,MEAN_MOTION_DOT,MEAN_MOTION_DDOT
STARLINK-37489,2026-117P,2026-06-17T15:55:25.752000,15.82067811,.00007946,53.1571,240.9461,102.7922,257.3191,0,U,69251,999,305,.97205254E-3,.206986E-2,0
STARLINK-37434,2026-117Q,2026-06-17T15:51:09.165600,15.82033365,.000093,53.1569,240.9243,106.2645,253.8480,0,U,69252,999,305,.56723585E-3,.119067E-2,0
STARLINK-37368,2026-117R,2026-06-17T15:41:26.495232,15.82028959,.00008893,53.1572,240.8784,90.5405,269.5720,0,U,69253,999,305,.48013629E-3,.100435E-2,0
STARLINK-37517,2026-117S,2026-06-17T15:39:32.424768,15.82044264,.00008092,53.1570,240.8700,131.6385,228.4708,0,U,69254,999,305,.72303184E-3,.152638E-2,0
STARLINK-37378,2026-117T,2026-06-17T15:39:03.891168,15.82151938,.00012935,53.1567,240.8686,21.4298,338.6780,0,U,69255,999,305,.20043228E-2,.44113E-2,0
STARLINK-37396,2026-117U,2026-06-17T17:06:30.370464,15.82038611,.00008021,53.1567,240.5317,85.3160,274.7954,0,U,69256,999,306,.6239703E-3,.131265E-2,0
STARLINK-37508,2026-117V,2026-06-17T15:39:06.998112,15.80859776,.00011299,53.1574,240.8651,133.7096,226.4020,0,U,69257,999,305,-.17214446E-3,-.34518E-3,0
STARLINK-37276,2026-117W,2026-06-17T16:31:57.359712,15.76753990,.00154074,53.1569,240.3665,119.5300,240.7259,0,U,69258,999,306,-.32766433E-1,-.4562456E-1,0
STARLINK-37518,2026-117X,2026-06-17T16:33:06.193728,15.80892884,.00016128,53.1567,240.3730,58.4994,301.6186,0,U,69259,999,306,.36233318E-3,.71475E-3,0
STARLINK-37478,2026-117Y,2026-06-17T16:33:25.371072,15.80927419,.00009173,53.1571,240.3756,83.9366,276.1761,0,U,69260,999,306,.59067764E-3,.117779E-2,0
STARLINK-37506,2026-117Z,2026-06-17T16:32:43.328832,15.80927251,.00012532,53.1568,240.3714,75.3017,284.8145,0,U,69261,999,306,.6907139E-3,.138173E-2,0
STARLINK-37503,2026-117AA,2026-06-17T16:32:21.058368,15.80946401,.00011752,53.1569,240.3705,78.7993,281.3161,0,U,69262,999,306,.91485854E-3,.184394E-2,0
STARLINK-37502,2026-117AB,2026-06-17T22:00:01.999584,15.80884563,.00011296,53.1572,239.2228,87.4598,131.3875,0,U,69263,999,429,-.12437445E-3,-.25188E-3,0
STARLINK-37486,2026-117AC,2026-06-17T16:29:51.196704,15.80917642,.00007577,53.1571,240.3569,68.4684,291.6420,0,U,69264,999,306,.55429288E-3,.110335E-2,0
STARLINK-37435,2026-117AD,2026-06-17T22:00:01.999584,15.80902331,.00011334,53.1571,239.2254,78.7602,138.5661,0,U,69265,999,429,-.4871151E-3,-.9591E-3,0
STARLINK-37464,2026-117AE,2026-06-17T16:25:04.563840,15.82023769,.00008542,53.1569,240.3341,71.4665,288.6451,0,U,69266,999,306,.49784585E-3,.104186E-2,0
KUIPER-00282,2026-118A,2026-06-17T20:57:59.408928,15.34193204,.00121319,51.8594,50.2637,183.9458,176.1433,0,U,69267,999,408,.47439514E-3,.15625E-3,0
KUIPER-00383,2026-118B,2026-06-17T20:53:19.587840,15.35283421,.00124557,51.8599,50.2459,206.1577,153.8780,0,U,69268,999,408,.25780601E-1,.971689E-2,0
KUIPER-00527,2026-118C,2026-06-17T22:20:18.027744,15.34760615,.00102726,51.8625,49.9021,177.0058,183.0990,0,U,69269,999,409,.21697923E-3,.7057E-4,0
KUIPER-00562,2026-118D,2026-06-17T19:56:20.128128,15.38647989,.00017989,51.8721,49.9931,118.0696,242.0473,0,U,69270,999,408,.48075388E-3,.18293E-3,0
KUIPER-00570,2026-118E,2026-06-17T20:49:58.319904,15.34614492,.00116022,51.8583,50.2262,186.8995,173.1832,0,U,69271,999,408,.44517901E-3,.14835E-3,0
KUIPER-00572,2026-118F,2026-06-17T21:58:41.183616,15.37037016,.00073203,51.8675,49.8122,173.6952,186.4128,0,U,69272,999,409,.53886633E-3,.19506E-3,0
KUIPER-00581,2026-118G,2026-06-17T22:04:36.360192,15.36666510,.00088459,51.8664,49.8370,177.4464,182.6569,0,U,69273,999,418,.53145578E-3,.19007E-3,0
KUIPER-00584,2026-118H,2026-06-17T22:00:01.999584,15.34332008,.0011581,51.8610,50.0241,189.6499,66.0738,0,U,69274,999,268,-.12829172E-3,-.4721E-4,0
KUIPER-00587,2026-118J,2026-06-17T22:03:38.544768,15.36711162,.00081675,51.8637,49.8301,180.4526,179.6454,0,U,69275,999,409,.49634398E-3,.17745E-3,0
KUIPER-00590,2026-118K,2026-06-17T21:42:54.976608,15.37928952,.0004145,51.8687,49.7429,161.0858,199.0284,0,U,69276,999,409,.32136983E-3,.11801E-3,0
KUIPER-00592,2026-118L,2026-06-17T21:39:10.315008,15.38106374,.00036622,51.8707,49.7257,136.7836,223.3439,0,U,69277,999,409,.32512256E-3,.12014E-3,0
KUIPER-00593,2026-118M,2026-06-17T21:40:13.914048,15.38064403,.00038064,51.8712,49.7296,156.5697,203.5464,0,U,69278,999,415,.32453607E-3,.11975E-3,0
KUIPER-00594,2026-118N,2026-06-17T19:54:38.011968,15.38681661,.00010462,51.8716,49.9886,89.6245,270.4863,0,U,69279,999,408,.49214309E-3,.18758E-3,0
KUIPER-00595,2026-118P,2026-06-17T21:31:22.998144,15.38551819,.00017091,51.8710,49.6895,147.0013,213.1081,0,U,69280,999,412,.12571341E-3,.4467E-4,0
KUIPER-00596,2026-118Q,2026-06-17T20:50:55.363776,15.34718750,.00126165,51.8560,50.2262,187.0032,173.0779,0,U,69281,999,408,.55197324E-3,.18565E-3,0
KUIPER-00597,2026-118R,2026-06-17T21:56:16.189728,15.37050244,.0007019,51.8657,49.7999,174.6423,185.4640,0,U,69282,999,409,.45038512E-3,.16238E-3,0
KUIPER-00599,2026-118S,2026-06-17T20:18:13.396032,15.37415280,.00069536,51.8694,50.0968,168.5990,191.5156,0,U,69283,999,408,.70397452E-3,.25943E-3,0
KUIPER-00600,2026-118T,2026-06-17T22:02:32.357184,15.36768516,.00089187,51.8649,49.8263,176.5705,183.5344,0,U,69284,999,409,.70131978E-3,.25313E-3,0
KUIPER-00601,2026-118U,2026-06-17T20:13:06.145536,15.37676277,.00047111,51.8706,50.0739,155.8530,204.2678,0,U,69285,999,408,.54307507E-3,.20072E-3,0
KUIPER-00602,2026-118V,2026-06-17T21:37:51.949344,15.38197121,.00030144,51.8701,49.7201,149.5330,210.5832,0,U,69286,999,409,.40145592E-3,.14978E-3,0
KUIPER-00603,2026-118W,2026-06-17T20:15:00.635904,15.37594043,.0005474,51.8674,50.0823,162.2006,197.9173,0,U,69287,999,408,.53816128E-3,.19834E-3,0
KUIPER-00605,2026-118X,2026-06-17T21:57:12.209760,15.37067922,.00074584,51.8670,49.8048,170.1796,189.9338,0,U,69288,999,409,.44942537E-3,.16213E-3,0
KUIPER-00606,2026-118Y,2026-06-17T20:11:13.571520,15.37708876,.00048976,51.8693,50.0659,157.0686,203.0520,0,U,69289,999,408,.54332461E-3,.20103E-3,0
KUIPER-00607,2026-118Z,2026-06-17T20:16:47.015040,15.37461679,.00062206,51.8680,50.0900,164.0256,196.0928,0,U,69290,999,408,.54664532E-3,.20069E-3,0
KUIPER-00608,2026-118AA,2026-06-17T22:15:36.259200,15.35230296,.00084357,51.8615,49.8802,178.8759,181.2248,0,U,69291,999,409,.16703782E-3,.5425E-4,0
KUIPER-00610,2026-118AB,2026-06-17T21:34:45.170688,15.38247940,.00027508,51.8722,49.7026,148.2954,211.8199,0,U,69292,999,409,-.34903726E-3,-.13734E-3,0
KUIPER-00613,2026-118AC,2026-06-17T19:14:59.900352,15.34886737,.00095059,51.8640,50.5417,184.8677,175.2217,0,U,69293,999,407,-.11181722E-2,-.38655E-3,0
KUIPER-00618,2026-118AD,2026-06-17T21:28:53.214240,15.38659951,.0001707,51.8718,49.6760,94.6309,265.4873,0,U,69294,999,409,.35912191E-3,.13561E-3,0
KUIPER-00620,2026-118AE,2026-06-17T21:33:56.924064,15.38323806,.00028364,51.8714,49.7007,123.8881,236.2376,0,U,69295,999,409,.33163793E-3,.12352E-3,0
STARLINK-37501,2026-119A,2026-06-17T22:00:01.999584,15.60703353,.00019037,97.2850,194.7376,92.0098,174.3010,0,U,69296,999,400,-.32284449E-1,-.2351417E-1,0
STARLINK-37496,2026-119B,2026-06-17T22:00:01.999584,15.60277367,.00014969,97.2851,194.7312,86.6804,169.5941,0,U,69297,999,400,-.90444223E-2,-.678626E-2,0
STARLINK-37519,2026-119C,2026-06-17T22:00:01.999584,15.60383338,.00016759,97.2847,194.7456,95.8184,189.8774,0,U,69298,999,400,-.34726678E-1,-.2479032E-1,0
STARLINK-37455,2026-119D,2026-06-17T22:00:01.999584,15.49760376,.00013541,97.2846,194.6713,91.2846,23.3477,0,U,69299,999,400,-.17442265E-1,-.880936E-2,0
STARLINK-37456,2026-119E,2026-06-17T22:00:01.999584,15.58871587,.00016808,97.2855,194.7448,95.8516,186.5812,0,U,69300,999,400,-.3587169E-1,-.2424667E-1,0
STARLINK-37630,2026-119F,2026-06-17T22:00:01.999584,15.49141419,.00008175,97.2848,194.5917,78.2757,214.2387,0,U,69301,999,416,.15452173E-2,.84717E-3,0
STARLINK-37804,2026-119G,2026-06-17T22:00:01.999584,15.49134850,.00013242,97.2848,194.5894,87.6388,197.8236,0,U,69302,999,416,.17147329E-2,.94113E-3,0
STARLINK-37730,2026-119H,2026-06-17T22:00:01.999584,15.65885698,.0001513,97.2841,194.7853,68.9900,318.8591,0,U,69303,999,416,-.28501329E-1,-.2520949E-1,0
STARLINK-37731,2026-119J,2026-06-17T22:00:01.999584,15.49141029,.00011182,97.2850,194.5857,70.9266,208.5301,0,U,69304,999,416,.14585512E-2,.79911E-3,0
STARLINK-37734,2026-119K,2026-06-17T22:00:01.999584,15.59062317,.00005308,97.2852,194.7416,211.8677,69.4411,0,U,69305,999,416,-.39818722E-1,-.2727147E-1,0
STARLINK-37701,2026-119L,2026-06-17T22:00:01.999584,15.64676567,.00014472,97.2839,194.7807,67.9739,310.3197,0,U,69306,999,416,-.30127053E-1,-.2536136E-1,0
STARLINK-37732,2026-119M,2026-06-17T22:00:01.999584,15.70788335,.0001694,97.2839,194.8062,72.6457,4.5038,0,U,69307,999,416,-.23601295E-1,-.2550617E-1,0
STARLINK-37689,2026-119N,2026-06-17T22:00:01.999584,15.49177513,.00006245,97.2850,194.5944,50.2275,248.2522,0,U,69308,999,416,.18581436E-2,.102249E-2,0
STARLINK-37619,2026-119P,2026-06-17T22:00:01.999584,15.68433515,.0001648,97.2841,194.8033,72.1321,357.8642,0,U,69309,999,416,-.25942803E-1,-.2542775E-1,0
STARLINK-37794,2026-119Q,2026-06-17T22:00:01.999584,15.55893150,.00022818,97.2847,194.7383,95.5214,180.4221,0,U,69310,999,416,-.10770104E-1,-.684783E-2,0
STARLINK-37795,2026-119R,2026-06-17T22:00:01.999584,15.49165744,.00006937,97.2846,194.6056,63.9393,259.9425,0,U,69311,999,416,.18101771E-2,.99532E-3,0
STARLINK-37790,2026-119S,2026-06-17T22:00:01.999584,15.62840415,.00013448,97.2838,194.7908,82.9346,307.6055,0,U,69312,999,416,-.31122837E-1,-.2448793E-1,0
STARLINK-37676,2026-119T,2026-06-17T22:00:01.999584,15.71890489,.00019059,97.2840,194.8269,73.0693,52.4040,0,U,69313,999,416,-.2220847E-1,-.2519476E-1,0
STARLINK-37617,2026-119U,2026-06-17T22:00:01.999584,15.62419258,.00014042,97.2842,194.7871,86.2268,306.5797,0,U,69314,999,416,-.1091401E-1,-.881832E-2,0
